[Satellite]
VERSION=1.1
NAME=CARTOSAT-2C
NICKNAME=CARTOSAT-2C
TLE1=1 41599U 16040A   17186.25022904  .00000355  00000-0  20084-4 0  9997
TLE2=2 41599  97.4572 247.7869 0014649  19.0325  67.2588 15.19234174 57398
